[{"OBJECT_NAME":"YAOGAN-30 09A","OBJECT_ID":"2021-039A","EPOCH":"2026-03-09T22:49:24.864672","MEAN_MOTION":15.02125939,"ECCENTRICITY":0.0004998,"INCLINATION":34.9966,"RA_OF_ASC_NODE":276.1989,"ARG_OF_PERICENTER":265.144,"MEAN_ANOMALY":94.8698,"EPHEMERIS_TYPE":0,"CLASSIFICATION_TYPE":"U","NORAD_CAT_ID":48423,"ELEMENT_SET_NO":999,"REV_AT_EPOCH":26461,"BSTAR":0.00029068534,"MEAN_MOTION_DOT":3.873e-5,"MEAN_MOTION_DDOT":0},{"OBJECT_NAME":"STARLINK-34957","OBJECT_ID":"2025-191K","EPOCH":"2026-03-09T14:57:25.121088","MEAN_MOTION":15.0564824,"ECCENTRICITY":0.0001967,"INCLINATION":97.6022,"RA_OF_ASC_NODE":301.5273,"ARG_OF_PERICENTER":62.8793,"MEAN_ANOMALY":297.2634,"EPHEMERIS_TYPE":0,"CLASSIFICATION_TYPE":"U","NORAD_CAT_ID":65388,"ELEMENT_SET_NO":999,"REV_AT_EPOCH":3026,"BSTAR":0.00015399,"MEAN_MOTION_DOT":2.162e-5,"MEAN_MOTION_DDOT":0}]
